{
  "version": 0.6,
  "generator": "Overpass API 0.7.62.5 1bd436f1",
  "osm3s": {
    "timestamp_osm_base": "2025-03-13T14:28:15Z",
    "copyright": "The data included in this document is from www.openstreetmap.org. The data is made available under ODbL."
  },
  "elements": [

{
  "type": "node",
  "id": 248467412,
  "lat": 13.0743424,
  "lon": 80.2424210,
  "tags": {
    "internet_access": "no",
    "name": "Chennai Chetpat",
    "name:ml": "ചേത്തുപ്പട്ട്",
    "name:ta": "சேத்துப்பட்டு",
    "network": "IR",
    "operator": "SR",
    "public_transport": "station",
    "railway": "station",
    "ref": "MSC",
    "wikidata": "Q5094188"
  }
},
{
  "type": "node",
  "id": 248545108,
  "lat": 13.1143904,
  "lon": 80.1663975,
  "tags": {
    "internet_access": "no",
    "name": "Pattaravakkam",
    "name:ml": "പട്ടരവാക്കം",
    "name:ta": "பட்டரவாக்கம்",
    "network": "IR",
    "operator": "SR",
    "railway": "station",
    "ref": "PVM",
    "wikidata": "Q7148328",
    "wikipedia": "en:Pattaravakkam railway station"
  }
},
{
  "type": "node",
  "id": 262308384,
  "lat": 13.1373759,
  "lon": 80.0601177,
  "tags": {
    "internet_access": "no",
    "name": "Pattabiram Military Siding",
    "network": "IR",
    "operator": "SR",
    "public_transport": "station",
    "railway": "station",
    "ref": "PTMS",
    "wikidata": "Q63369351"
  }
},
{
  "type": "node",
  "id": 304278622,
  "lat": 13.0985386,
  "lon": 80.2010061,
  "tags": {
    "internet_access": "no",
    "name": "Anna Nagar West",
    "name:ml": "അണ്ണാ നഗർ പടിഞ്ഞാറ്",
    "name:ta": "அண்ணா நகர் மேற்கு",
    "network": "IR",
    "operator": "SR",
    "public_transport": "station",
    "railway": "station",
    "ref": "ANNG",
    "wikidata": "Q4767370",
    "wikipedia": "en:Anna Nagar railway station"
  }
},
{
  "type": "node",
  "id": 2481258995,
  "lat": 13.0795870,
  "lon": 80.2762947,
  "tags": {
    "name": "Chennai Park Town",
    "name:ml": "പാർക്ക് ടൗൺ",
    "name:ta": "பூங்கா நகர்",
    "network": "IR",
    "operator": "SR",
    "public_transport": "station",
    "railway": "station",
    "ref": "MPKT",
    "train": "yes",
    "wikidata": "Q5091453",
    "wikipedia": "en:Chennai Park Town railway station"
  }
},
{
  "type": "node",
  "id": 2481258999,
  "lat": 13.0807537,
  "lon": 80.2730879,
  "tags": {
    "internet_access": "no",
    "name": "Chennai Park",
    "name:ml": "ചെന്നൈ പാർക്ക്",
    "name:ta": "சென்னை பூங்கா",
    "network": "IR",
    "operator": "SR",
    "public_transport": "station",
    "railway": "station",
    "ref": "MPK",
    "wikidata": "Q5091452",
    "wikipedia": "en:Chennai Park railway station"
  }
},
{
  "type": "node",
  "id": 2481259002,
  "lat": 13.0516624,
  "lon": 80.2306892,
  "tags": {
    "internet_access": "no",
    "name": "Kodambakkam",
    "name:ml": "കോടമ്പാക്കം",
    "name:ta": "கோடம்பாக்கம்",
    "network": "IR",
    "operator": "SR",
    "public_transport": "station",
    "railway": "station",
    "ref": "MKK",
    "wikidata": "Q6425199",
    "wikipedia": "en:Kodambakkam railway station"
  }
},
{
  "type": "node",
  "id": 2481259006,
  "lat": 13.0380662,
  "lon": 80.2277752,
  "tags": {
    "internet_access": "no",
    "name": "Mambalam",
    "name:en": "Mambalam",
    "name:hi": "मांबलम",
    "name:ml": "മാമ്പലം",
    "name:ta": "மாம்பலம்",
    "network": "IR",
    "operator": "SR",
    "public_transport": "station",
    "railway": "station",
    "ref": "MBM",
    "wikidata": "Q6745495",
    "wikipedia": "en:Mambalam railway station"
  }
},
{
  "type": "node",
  "id": 2481259029,
  "lat": 13.0233098,
  "lon": 80.2237191,
  "tags": {
    "internet_access": "no",
    "name": "Saidapet",
    "name:ml": "സൈദാപേട്ട",
    "name:ta": "சைதாப்பேட்டை",
    "network": "IR",
    "operator": "SR",
    "public_transport": "station",
    "railway": "station",
    "ref": "SP",
    "wikidata": "Q7399955",
    "wikipedia": "en:Saidapet railway station"
  }
},
{
  "type": "node",
  "id": 2481969291,
  "lat": 13.0824232,
  "lon": 80.2759622,
  "tags": {
    "alt_name": "Chennai Central",
    "int_name": "Chennai Central",
    "internet_access": "wlan",
    "name": "Puratchi Thalaivar Dr. M. G. Ramachandran Central",
    "name:ml": "പുരട്ചി തലൈവർ ഡോ.എം.ജി.രാമചന്ദ്രൻ സെൻട്രൽ",
    "name:ta": "சென்னை - புரட்சி தலைவர் டா. எம். ஜி. ராமச்சந்திரன் சென்ட்ரல்",
    "network": "IR",
    "old_name": "Madras Central",
    "operator": "SR",
    "public_transport": "station",
    "railway": "station",
    "ref": "MAS",
    "wikidata": "Q257382",
    "wikipedia": "en:Chennai Central railway station"
  }
},
{
  "type": "node",
  "id": 2486239287,
  "lat": 13.0619312,
  "lon": 80.2805960,
  "tags": {
    "internet_access": "no",
    "name": "Chepauk",
    "name:ta": "சேப்பாக்கம்",
    "network": "IR",
    "operator": "SR",
    "public_transport": "station",
    "railway": "station",
    "ref": "MCPK",
    "train": "yes",
    "wikidata": "Q5091698",
    "wikipedia": "en:Chepauk railway station"
  }
},
{
  "type": "node",
  "id": 2486239288,
  "lat": 13.0559352,
  "lon": 80.2806044,
  "tags": {
    "internet_access": "no",
    "name": "Thiruvallikeni",
    "network": "IR",
    "operator": "SR",
    "public_transport": "station",
    "railway": "station",
    "ref": "MTCN",
    "train": "yes",
    "wikidata": "Q7785486",
    "wikipedia": "en:Thiruvallikeni railway station"
  }
},
{
  "type": "node",
  "id": 2605993507,
  "lat": 13.2813398,
  "lon": 80.2602441,
  "tags": {
    "internet_access": "no",
    "name": "Minjur",
    "name:ml": "മീഞ്ചൂർ",
    "name:ta": "மீஞ்சூர்",
    "network": "IR",
    "operator": "SR",
    "public_transport": "station",
    "railway": "station",
    "ref": "MJR",
    "wikidata": "Q15253477",
    "wikipedia": "en:Minjur railway station"
  }
},
{
  "type": "node",
  "id": 3187977875,
  "lat": 12.9906385,
  "lon": 80.1879401,
  "tags": {
    "name": "Palavanthangal",
    "name:ml": "പഴവന്താങ്കൽ",
    "name:ta": "பழவந்தாங்கல்",
    "network": "IR",
    "operator": "SR",
    "public_transport": "station",
    "railway": "station",
    "ref": "PZA",
    "wikidata": "Q7156987",
    "wikipedia": "en:Pazhavanthangal railway station"
  }
},
{
  "type": "node",
  "id": 3264712327,
  "lat": 13.0086685,
  "lon": 80.2126063,
  "tags": {
    "internet_access": "no",
    "name": "Guindy",
    "name:en": "Guindy",
    "name:hi": "गिंडी",
    "name:ml": "ഗിണ്ടി",
    "name:ta": "கிண்டி",
    "network": "IR",
    "operator": "SR",
    "public_transport": "station",
    "railway": "station",
    "ref": "GDY",
    "wikidata": "Q5616431",
    "wikipedia": "en:Guindy railway station"
  }
},
{
  "type": "node",
  "id": 3678939665,
  "lat": 13.1182744,
  "lon": 80.1015427,
  "tags": {
    "internet_access": "no",
    "name": "Avadi",
    "name:hi": "आवडि",
    "name:ml": "ആവടി",
    "name:pa": "ਆਵਡਿ",
    "name:ta": "ஆவடி",
    "network": "IR",
    "operator": "SR",
    "public_transport": "station",
    "railway": "station",
    "ref": "AVD",
    "wheelchair": "yes",
    "wikidata": "Q4827409",
    "wikipedia": "en:Avadi railway station"
  }
},
{
  "type": "node",
  "id": 4221752111,
  "lat": 12.9947654,
  "lon": 80.1993715,
  "tags": {
    "internet_access": "no",
    "name": "St. Thomas Mount",
    "name:ml": "സെന്റ് തോമസ് മൗണ്ട്",
    "name:ta": "பரங்கிமலை",
    "network": "IR",
    "operator": "SR",
    "public_transport": "station",
    "railway": "station",
    "ref": "STM",
    "wikidata": "Q7591984",
    "wikipedia": "en:St. Thomas Mount railway station"
  }
},
{
  "type": "node",
  "id": 4435694788,
  "lat": 12.9675742,
  "lon": 80.1520504,
  "tags": {
    "internet_access": "no",
    "name": "Pallavaram",
    "name:hi": "पल्लावरम",
    "name:ml": "പല്ലാവരം",
    "name:pa": "ਪੱਲਾਵਰਮ",
    "name:ta": "பல்லாவரம்",
    "operator": "SR",
    "public_transport": "station",
    "railway": "station",
    "ref": "PV",
    "wikidata": "Q7127768",
    "wikipedia": "en:Pallavaram railway station"
  }
},
{
  "type": "node",
  "id": 4767159308,
  "lat": 12.9052432,
  "lon": 80.0950460,
  "tags": {
    "addr:postcode": "600063",
    "internet_access": "no",
    "name": "Perungalattur",
    "name:ml": "പെരുങ്കളത്തൂർ",
    "name:ta": "பெருங்களத்தூர்",
    "network": "IR",
    "operator": "SR",
    "public_transport": "station",
    "railway": "station",
    "ref": "PRGL",
    "wikidata": "Q7171096",
    "wikipedia": "en:Perungalathur railway station"
  }
},
{
  "type": "node",
  "id": 4885083053,
  "lat": 12.9804609,
  "lon": 80.1657933,
  "tags": {
    "internet_access": "no",
    "name": "Tirusulam",
    "name:ml": "തിരുശൂലം",
    "name:ta": "திருசூலம்",
    "network": "IR",
    "operator": "SR",
    "public_transport": "station",
    "railway": "station",
    "ref": "TLM",
    "wikidata": "Q7809428",
    "wikipedia": "en:Tirusulam railway station"
  }
},
{
  "type": "node",
  "id": 4885094689,
  "lat": 12.9846976,
  "lon": 80.1750925,
  "tags": {
    "internet_access": "no",
    "internet_access:fee": "no",
    "name": "Meenambakkam",
    "name:ml": "മീനമ്പാക്കം",
    "name:ta": "மீனம்பாக்கம்",
    "network": "IR",
    "operator": "SR",
    "public_transport": "station",
    "railway": "station",
    "ref": "MN",
    "wikidata": "Q6807623",
    "wikipedia": "en:Meenambakkam railway station"
  }
},
{
  "type": "node",
  "id": 5273733276,
  "lat": 12.9521897,
  "lon": 80.1411677,
  "tags": {
    "internet_access": "no",
    "name": "Chromepet",
    "name:ml": "ക്രോംപേട്ട",
    "name:ta": "குரோம்பேட்டை",
    "network": "IR",
    "operator": "SR",
    "public_transport": "station",
    "railway": "station",
    "ref": "CMP",
    "wikidata": "Q5113793",
    "wikipedia": "en:Chromepet railway station"
  }
},
{
  "type": "node",
  "id": 5273746526,
  "lat": 12.8055581,
  "lon": 80.0266339,
  "tags": {
    "internet_access": "no",
    "name": "Kattangulathur",
    "network": "IR",
    "operator": "SR",
    "public_transport": "station",
    "railway": "station",
    "ref": "CTM",
    "wikidata": "Q15234477",
    "wikipedia": "en:Kattankulathur railway station"
  }
},
{
  "type": "node",
  "id": 5274094702,
  "lat": 13.2174681,
  "lon": 80.3216013,
  "tags": {
    "internet_access": "no",
    "name": "Ennore",
    "name:ml": "എണ്ണൂർ",
    "name:ta": "எண்ணூர்",
    "network": "IR",
    "operator": "SR",
    "public_transport": "station",
    "railway": "station",
    "ref": "ENR",
    "wikidata": "Q5379236",
    "wikipedia": "en:Ennore railway station"
  }
},
{
  "type": "node",
  "id": 5274201067,
  "lat": 13.1184826,
  "lon": 80.0744298,
  "tags": {
    "internet_access": "no",
    "name": "Hindu College",
    "name:ta": "இந்துக் கல்லூரி",
    "network": "IR",
    "operator": "SR",
    "railway": "station",
    "ref": "HC",
    "wheelchair": "yes",
    "wikidata": "Q5766274",
    "wikipedia": "en:Hindu College railway station"
  }
},
{
  "type": "node",
  "id": 5274212914,
  "lat": 13.1460141,
  "lon": 80.0686194,
  "tags": {
    "internet_access": "no",
    "name": "Pattabiram E Depot",
    "network": "IR",
    "operator": "SR",
    "public_transport": "station",
    "railway": "station",
    "ref": "PRES",
    "wikidata": "Q7148296",
    "wikipedia": "en:Pattabiram East Depot railway station"
  }
},
{
  "type": "node",
  "id": 5274260962,
  "lat": 12.8452303,
  "lon": 80.0576503,
  "tags": {
    "internet_access": "no",
    "name": "Guduvancheri",
    "name:ta": "கூடுவாஞ்சேரி",
    "network": "IR",
    "operator": "SR",
    "public_transport": "station",
    "railway": "station",
    "ref": "GI",
    "wikidata": "Q15222239",
    "wikipedia": "en:Guduvancheri railway station"
  }
},
{
  "type": "node",
  "id": 5274761658,
  "lat": 13.1194248,
  "lon": 80.2784559,
  "tags": {
    "internet_access": "no",
    "name": "Korukkupet",
    "name:ml": "കൊരുക്കുപേട്ട",
    "name:ta": "கொருக்குப்பேட்டை",
    "network": "IR",
    "operator": "SR",
    "public_transport": "station",
    "railway": "station",
    "ref": "KOK",
    "wikidata": "Q6432750",
    "wikipedia": "en:Korukkupet railway station"
  }
},
{
  "type": "node",
  "id": 5274761659,
  "lat": 13.1131424,
  "lon": 80.1841521,
  "tags": {
    "internet_access": "no",
    "name": "Korattur",
    "name:ml": "കൊരട്ടൂർ",
    "name:ta": "கொரட்டூர்",
    "network": "IR",
    "operator": "SR",
    "railway": "station",
    "ref": "KOTR",
    "wikidata": "Q6431441",
    "wikipedia": "en:Korattur railway station"
  }
},
{
  "type": "node",
  "id": 5274913769,
  "lat": 13.0137182,
  "lon": 80.2484517,
  "tags": {
    "internet_access": "no",
    "name": "Kotturpuram",
    "name:ta": "கோட்டூர்புரம்",
    "network": "IR",
    "operator": "SR",
    "public_transport": "station",
    "railway": "station",
    "ref": "KTPM",
    "train": "yes",
    "wikidata": "Q6434367",
    "wikipedia": "en:Kotturpuram railway station"
  }
},
{
  "type": "node",
  "id": 5275790188,
  "lat": 13.0777493,
  "lon": 80.2612572,
  "tags": {
    "internet_access": "wlan",
    "name": "Chennai Egmore",
    "name:ml": "ചെന്നൈ എഴുമ്പൂർ",
    "name:ta": "சென்னை எழும்பூர்",
    "network": "IR",
    "operator": "SR",
    "public_transport": "station",
    "railway": "station",
    "ref": "MS",
    "survey:date": "2021-04-11",
    "wheelchair": "yes",
    "wikidata": "Q3536643",
    "wikipedia": "en:Chennai Egmore railway station"
  }
},
{
  "type": "node",
  "id": 5276187591,
  "lat": 13.1072814,
  "lon": 80.2388864,
  "tags": {
    "internet_access": "no",
    "name": "Perambur Carriage Works",
    "network": "IR",
    "operator": "SR",
    "public_transport": "station",
    "railway": "station",
    "ref": "PCW",
    "wikidata": "Q7166919",
    "wikipedia": "en:Perambur Carriage Works railway station"
  }
},
{
  "type": "node",
  "id": 5276205560,
  "lat": 13.1077190,
  "lon": 80.2444143,
  "tags": {
    "internet_access": "no",
    "name": "Perambur",
    "name:en": "Perambur",
    "name:hi": "पेरंबूर",
    "name:ml": "പെരമ്പൂർ",
    "name:ta": "பெரம்பூர்",
    "network": "IR",
    "operator": "SR",
    "public_transport": "station",
    "railway": "station",
    "ref": "PER",
    "wikidata": "Q7166920",
    "wikipedia": "en:Perambur railway station"
  }
},
{
  "type": "node",
  "id": 5276214842,
  "lat": 13.1084975,
  "lon": 80.2262155,
  "tags": {
    "internet_access": "no",
    "name": "Perambur Loco Works",
    "network": "IR",
    "operator": "SR",
    "public_transport": "station",
    "railway": "station",
    "ref": "PEW",
    "wikidata": "Q7166918",
    "wikipedia": "en:Perambur Loco Works railway station"
  }
},
{
  "type": "node",
  "id": 5286945822,
  "lat": 12.9257923,
  "lon": 80.1179194,
  "tags": {
    "internet_access": "wlan",
    "name": "Tambaram",
    "name:ml": "താംബരം",
    "name:ta": "தாம்பரம்",
    "network": "IR",
    "operator": "SR",
    "public_transport": "station",
    "railway": "station",
    "ref": "TBM",
    "wikidata": "Q7681017",
    "wikipedia": "en:Tambaram railway station"
  }
},
{
  "type": "node",
  "id": 5286998286,
  "lat": 13.1239940,
  "lon": 80.0297436,
  "tags": {
    "internet_access": "no",
    "name": "Tiruninravur",
    "network": "IR",
    "operator": "SR",
    "public_transport": "station",
    "railway": "station",
    "ref": "TI",
    "wikidata": "Q7785400"
  }
},
{
  "type": "node",
  "id": 5287023932,
  "lat": 13.1091961,
  "lon": 80.2572195,
  "tags": {
    "internet_access": "no",
    "name": "Vyasarpadi Jeeva",
    "name:ml": "വ്യാസർപാടി ജീവ",
    "name:ta": "வியாசர்பாடி ஜீவா",
    "network": "IR",
    "operator": "SR",
    "public_transport": "station",
    "railway": "station",
    "ref": "VJM",
    "wikidata": "Q7943892",
    "wikipedia": "en:Vyasarpadi Jeeva railway station"
  }
},
{
  "type": "node",
  "id": 5308690568,
  "lat": 13.0042558,
  "lon": 80.2014525,
  "tags": {
    "addr:city": "Chennai",
    "layer": "1",
    "level": "1",
    "name": "ஆலந்தூர்",
    "name:en": "Alandur",
    "name:ml": "ആലന്തൂർ",
    "name:ta": "ஆலந்தூர்",
    "network": "Chennai Metro",
    "note": "Contributors are requested to not edit the \"network\" and the \"operator\" tags. (2023/11/08)",
    "operator": "Chennai Metro Rail Limited",
    "public_transport": "station",
    "railway": "station",
    "railway:ref": "SAL",
    "ref": "SAL",
    "station": "subway",
    "subway": "yes",
    "wheelchair": "yes",
    "wikidata": "Q4708199",
    "wikipedia": "en:Alandur metro station"
  }
},
{
  "type": "node",
  "id": 5310778033,
  "lat": 13.1140244,
  "lon": 80.1528611,
  "tags": {
    "internet_access": "no",
    "name": "Ambattur",
    "name:ml": "അമ്പത്തൂർ",
    "name:ta": "அம்பத்தூர்",
    "network": "IR",
    "operator": "SR",
    "railway": "station",
    "ref": "ABU",
    "wikidata": "Q4741171",
    "wikipedia": "en:Ambattur railway station"
  }
},
{
  "type": "node",
  "id": 5310778035,
  "lat": 13.1163563,
  "lon": 80.1269127,
  "tags": {
    "internet_access": "no",
    "name": "Annanur",
    "name:ml": "അണ്ണനൂർ",
    "name:ta": "அண்ணனூர்",
    "network": "IR",
    "operator": "SR",
    "public_transport": "station",
    "railway": "station",
    "ref": "ANNR",
    "train": "yes",
    "wikidata": "Q4767947",
    "wikipedia": "en:Annanur railway station"
  }
},
{
  "type": "node",
  "id": 5311732458,
  "lat": 13.1275202,
  "lon": 80.2819242,
  "tags": {
    "internet_access": "no",
    "name": "Tondiarpet",
    "name:en": "Tondiarpet",
    "name:hi": "तोंदिअर्पेट",
    "name:ml": "തണ്ടയാർപേട്ട",
    "name:ta": "தண்டையார்பேட்டை",
    "network": "IR",
    "operator": "SR",
    "public_transport": "station",
    "railway": "station",
    "ref": "TNP",
    "train": "yes",
    "wikidata": "Q7820800",
    "wikipedia": "en:Tondiarpet railway station"
  }
},
{
  "type": "node",
  "id": 5311732459,
  "lat": 13.1586407,
  "lon": 80.2962076,
  "tags": {
    "internet_access": "no",
    "name": "Tiruvottiyur",
    "name:ml": "തിരുവൊറ്റിയൂർ",
    "name:ta": "திருவொற்றியூர்",
    "network": "IR",
    "operator": "SR",
    "public_transport": "station",
    "railway": "station",
    "ref": "TVT",
    "wikidata": "Q7809477",
    "wikipedia": "en:Tiruvottiyur railway station"
  }
},
{
  "type": "node",
  "id": 5311732501,
  "lat": 13.1796833,
  "lon": 80.3054594,
  "tags": {
    "name": "Wimco Nagar",
    "network": "IR",
    "operator": "SR",
    "public_transport": "station",
    "railway": "station",
    "ref": "WCN",
    "wikidata": "Q8023547",
    "wikipedia": "en:Wimco Nagar railway station"
  }
},
{
  "type": "node",
  "id": 5311732620,
  "lat": 13.2608405,
  "lon": 80.2896478,
  "tags": {
    "internet_access": "no",
    "name": "Attippattu",
    "name:ml": "അത്തിപ്പട്ട്",
    "name:ta": "அத்திப்பட்டு",
    "network": "IR",
    "operator": "SR",
    "public_transport": "station",
    "railway": "station",
    "ref": "AIP",
    "train": "yes",
    "wikidata": "Q4813672"
  }
},
{
  "type": "node",
  "id": 5311755231,
  "lat": 13.0737952,
  "lon": 80.2738611,
  "tags": {
    "internet_access": "no",
    "name": "Chintadaripet",
    "name:ml": "ചിന്താദ്രിപേട്ട",
    "name:ta": "சிந்தாதிரிப்பேட்டை",
    "network": "IR",
    "operator": "SR",
    "public_transport": "station",
    "railway": "station",
    "ref": "MCPT",
    "train": "yes",
    "wikidata": "Q5101294",
    "wikipedia": "en:Chintadripet railway station"
  }
},
{
  "type": "node",
  "id": 5311755232,
  "lat": 13.0455374,
  "lon": 80.2769885,
  "tags": {
    "internet_access": "no",
    "name": "Light House",
    "name:ta": "கலங்கரை விளக்கம்",
    "network": "IR",
    "operator": "SR",
    "public_transport": "station",
    "railway": "station",
    "ref": "MLHS",
    "train": "yes",
    "wikidata": "Q6546029",
    "wikipedia": "en:Light House railway station"
  }
},
{
  "type": "node",
  "id": 5311755233,
  "lat": 13.0406508,
  "lon": 80.2698818,
  "tags": {
    "internet_access": "no",
    "name": "Mundakakanni Amman Koil",
    "name:en": "Mundakakanni Amman Koil",
    "network": "IR",
    "operator": "SR",
    "public_transport": "station",
    "railway": "station",
    "ref": "MKAK",
    "train": "yes",
    "wikidata": "Q6935719",
    "wikipedia": "en:Mundagakanniamman Koil railway station"
  }
},
{
  "type": "node",
  "id": 5311755234,
  "lat": 13.0353976,
  "lon": 80.2675129,
  "tags": {
    "internet_access": "no",
    "name": "Thirumayilai",
    "network": "IR",
    "operator": "SR",
    "public_transport": "station",
    "railway": "station",
    "ref": "MTMY",
    "train": "yes",
    "wikidata": "Q7785353",
    "wikipedia": "en:Thirumayilai railway station"
  }
},
{
  "type": "node",
  "id": 5311755235,
  "lat": 13.0280931,
  "lon": 80.2606181,
  "tags": {
    "internet_access": "no",
    "name": "Mandaveli",
    "name:en": "Mandaveli",
    "name:ta": "மந்தைவெளி",
    "network": "IR",
    "operator": "SR",
    "public_transport": "station",
    "railway": "station",
    "ref": "MNDY",
    "wikidata": "Q6747921",
    "wikipedia": "en:Mandaveli railway station"
  }
},
{
  "type": "node",
  "id": 5311755236,
  "lat": 13.0215846,
  "lon": 80.2527292,
  "tags": {
    "internet_access": "no",
    "name": "Greenways Road",
    "network": "IR",
    "operator": "SR",
    "public_transport": "station",
    "railway": "station",
    "ref": "GWYR",
    "train": "yes",
    "wikidata": "Q15222131",
    "wikipedia": "en:Greenways Road railway station"
  }
},
{
  "type": "node",
  "id": 5311755237,
  "lat": 13.0053823,
  "lon": 80.2478604,
  "tags": {
    "internet_access": "no",
    "name": "Kasturiba Nagar",
    "network": "IR",
    "operator": "SR",
    "public_transport": "station",
    "railway": "station",
    "ref": "KTBR",
    "train": "yes",
    "wikidata": "Q6374849",
    "wikipedia": "en:Kasturba Nagar railway station"
  }
},
{
  "type": "node",
  "id": 5311755238,
  "lat": 12.9960623,
  "lon": 80.2497160,
  "tags": {
    "name": "Indira Nagar",
    "name:ta": "இந்திரா நகர்",
    "network": "IR",
    "operator": "SR",
    "public_transport": "station",
    "railway": "station",
    "ref": "INDR",
    "train": "yes",
    "wikidata": "Q6025052",
    "wikipedia": "en:Indira Nagar railway station"
  }
},
{
  "type": "node",
  "id": 5311755239,
  "lat": 12.9889822,
  "lon": 80.2515865,
  "tags": {
    "internet_access": "no",
    "name": "Tiruvanmiyur",
    "name:ta": "திருவான்மியூர்",
    "network": "IR",
    "operator": "SR",
    "public_transport": "station",
    "railway": "station",
    "ref": "TYMR",
    "train": "yes",
    "wikidata": "Q16956408",
    "wikipedia": "en:Thiruvanmiyur railway station"
  }
},
{
  "type": "node",
  "id": 5311755240,
  "lat": 12.9786584,
  "lon": 80.2416441,
  "tags": {
    "internet_access": "no",
    "name": "Taramani",
    "name:ta": "தரமணி",
    "network": "IR",
    "operator": "SR",
    "public_transport": "station",
    "railway": "station",
    "ref": "TRMN",
    "train": "yes",
    "wikidata": "Q7685362",
    "wikipedia": "en:Taramani railway station"
  }
},
{
  "type": "node",
  "id": 5311755241,
  "lat": 12.9760584,
  "lon": 80.2321916,
  "tags": {
    "name": "Perungudi",
    "name:ta": "பெருங்குடி",
    "network": "IR",
    "operator": "SR",
    "public_transport": "station",
    "railway": "station",
    "ref": "PRGD",
    "train": "yes",
    "wikidata": "Q7171100",
    "wikipedia": "en:Perungudi railway station"
  }
},
{
  "type": "node",
  "id": 5311755242,
  "lat": 12.9676192,
  "lon": 80.2195082,
  "tags": {
    "internet_access": "no",
    "name": "Velachery",
    "name:en": "Velachery",
    "name:hi": "वेलाचेरी",
    "name:ml": "വേളച്ചേരി",
    "name:ta": "வேளச்சேரி",
    "network": "IR",
    "operator": "SR",
    "public_transport": "station",
    "railway": "station",
    "ref": "VLCY",
    "train": "yes",
    "wikidata": "Q7918772",
    "wikipedia": "en:Velachery railway station"
  }
},
{
  "type": "node",
  "id": 5311755243,
  "lat": 12.9774891,
  "lon": 80.2050018,
  "tags": {
    "construction:railway": "station",
    "internet_access": "no",
    "name": "Puzhudivakkam",
    "network": "MRTS",
    "operator": "MRTS",
    "public_transport": "station",
    "railway": "station",
    "train": "yes",
    "wikidata": "Q7262676",
    "wikipedia": "en:Puzhuthivakkam railway station"
  }
},
{
  "type": "node",
  "id": 5311755244,
  "lat": 12.9823811,
  "lon": 80.1968882,
  "tags": {
    "construction:railway": "station",
    "name": "Adambakkam",
    "network": "MRTS",
    "operator": "MRTS",
    "public_transport": "station",
    "railway": "station",
    "train": "yes",
    "wikidata": "Q4680126",
    "wikipedia": "en:Adambakkam railway station"
  }
},
{
  "type": "node",
  "id": 5311775879,
  "lat": 12.8916061,
  "lon": 80.0849740,
  "tags": {
    "internet_access": "no",
    "name": "Vandalur",
    "name:ml": "വണ്ടലൂർ",
    "name:ta": "வண்டலூர்",
    "network": "IR",
    "operator": "SR",
    "public_transport": "station",
    "railway": "station",
    "ref": "VDR",
    "wikidata": "Q7914337",
    "wikipedia": "en:Vandalur railway station"
  }
},
{
  "type": "node",
  "id": 5311775880,
  "lat": 12.9369591,
  "lon": 80.1307034,
  "tags": {
    "internet_access": "no",
    "name": "Tambaram Sanatorium",
    "network": "IR",
    "operator": "SR",
    "public_transport": "station",
    "railway": "station",
    "ref": "TBMS",
    "wikidata": "Q7681014",
    "wikipedia": "en:Tambaram Sanatorium railway station"
  }
},
{
  "type": "node",
  "id": 5311775881,
  "lat": 13.0658410,
  "lon": 80.2328390,
  "tags": {
    "internet_access": "no",
    "name": "Nungambakkam",
    "name:ml": "നുങ്കമ്പാക്കം",
    "name:ta": "நுங்கம்பாக்கம்",
    "network": "IR",
    "operator": "SR",
    "public_transport": "station",
    "railway": "station",
    "ref": "NBK",
    "wikidata": "Q7069830",
    "wikipedia": "en:Nungambakkam railway station"
  }
},
{
  "type": "node",
  "id": 5319202812,
  "lat": 12.9950000,
  "lon": 80.1985820,
  "tags": {
    "name": "பரங்கிமலை",
    "name:en": "St. Thomas Mount",
    "name:ml": "സെന്റ് തോമസ് മൗണ്ട്",
    "name:ta": "பரங்கிமலை",
    "network": "Chennai Metro",
    "network:wikidata": "Q1639576",
    "note": "Contributors are requested to not edit the \"network\" and the \"operator\" tags. (2023/11/08)",
    "operator": "Chennai Metro Rail Limited",
    "public_transport": "station",
    "railway": "station",
    "railway:ref": "SMM",
    "ref": "SMM",
    "station": "subway",
    "subway": "yes",
    "wikidata": "Q7591984",
    "wikipedia": "en:St. Thomas Mount railway station"
  }
},
{
  "type": "node",
  "id": 5319207378,
  "lat": 13.0169222,
  "lon": 80.2054236,
  "tags": {
    "alt_name": "SIDCO",
    "local_ref": "SIDCO",
    "name": "ஈக்காட்டுத்தாங்கல்",
    "name:en": "Ekkattuthangal",
    "name:ml": "ഈക്കാട്ടുത്താങ്കൽ",
    "name:ta": "ஈக்காட்டுத்தாங்கல்",
    "network": "Chennai Metro",
    "network:wikidata": "Q1639576",
    "note": "Contributors are requested to not edit the \"network\" and the \"operator\" tags. (2023/11/08)",
    "operator": "Chennai Metro Rail Limited",
    "public_transport": "station",
    "railway": "station",
    "railway:ref": "SSI",
    "ref": "SSI",
    "station": "subway",
    "subway": "yes",
    "wikidata": "Q19891416",
    "wikipedia": "en:Ekkattuthangal metro station"
  }
},
{
  "type": "node",
  "id": 5319972796,
  "lat": 13.0354768,
  "lon": 80.2111075,
  "tags": {
    "alt_name": "Ashok Nagar - KK Nagar",
    "local_ref": "Ashok Nagar - KK Nagar",
    "name": "அசோக் நகர்",
    "name:en": "Ashok Nagar",
    "name:ml": "അശോക് നഗർ",
    "name:ta": "அசோக் நகர்",
    "network": "Chennai Metro",
    "network:wikidata": "Q1639576",
    "note": "Contributors are requested to not edit the \"network\" and the \"operator\" tags. (2023/11/08)",
    "operator": "Chennai Metro Rail Limited",
    "public_transport": "station",
    "railway": "station",
    "railway:ref": "SAN",
    "ref": "SAN",
    "station": "subway",
    "subway": "yes",
    "wikidata": "Q18378132",
    "wikipedia": "en:Ashok Nagar metro station"
  }
},
{
  "type": "node",
  "id": 5319972798,
  "lat": 13.0509304,
  "lon": 80.2120661,
  "tags": {
    "name": "வடபழநி",
    "name:en": "Vadapalani",
    "name:ml": "വടപളനി",
    "name:ta": "வடபழநி",
    "network": "Chennai Metro",
    "note": "Contributors are requested to not edit the \"network\" and the \"operator\" tags. (2023/11/08)",
    "operator": "Chennai Metro Rail Limited",
    "public_transport": "station",
    "railway": "station",
    "railway:ref": "SVA",
    "ref": "SVA",
    "station": "subway",
    "subway": "yes",
    "wikidata": "Q17075798",
    "wikipedia": "en:Vadapalani metro station"
  }
},
{
  "type": "node",
  "id": 5319972799,
  "lat": 13.0616746,
  "lon": 80.2116557,
  "tags": {
    "name": "அரும்பாக்கம்",
    "name:en": "Arumbakkam",
    "name:ml": "അരുമ്പാക്കം",
    "name:ta": "அரும்பாக்கம்",
    "network": "Chennai Metro",
    "note": "Contributors are requested to not edit the \"network\" and the \"operator\" tags. (2023/11/08)",
    "operator": "Chennai Metro Rail Limited",
    "public_transport": "station",
    "railway": "station",
    "railway:ref": "SAR",
    "ref": "SAR",
    "station": "subway",
    "subway": "yes",
    "wikidata": "Q19882103",
    "wikipedia": "en:Arumbakkam metro station"
  }
},
{
  "type": "node",
  "id": 5321248890,
  "lat": 13.0685246,
  "lon": 80.2039625,
  "tags": {
    "alt_name": "கோயம்பேடு பேருந்து நிலையம்",
    "alt_name:en": "Chennai Mofussil Bus Terminus",
    "alt_name:ta": "கோயம்பேடு பேருந்து நிலையம்",
    "name": "சென்னை புறநகர் பேருந்து நிலையம்",
    "name:en": "CMBT",
    "name:ml": "ചെന്നൈ നഗരപ്രാന്ത ബഹുവാഹക നിലയം",
    "name:ta": "சென்னை புறநகர் பேருந்து நிலையம்",
    "network": "Chennai Metro",
    "note": "Contributors are requested to not edit the \"network\" and the \"operator\" tags. (2023/11/08)",
    "operator": "Chennai Metro Rail Limited",
    "public_transport": "station",
    "railway": "station",
    "railway:ref": "SCM",
    "ref": "SCM",
    "station": "subway",
    "subway": "yes",
    "wikidata": "Q5012859",
    "wikipedia": "en:Chennai Mofussil Bus Terminus metro station"
  }
},
{
  "type": "node",
  "id": 5321248896,
  "lat": 13.0734496,
  "lon": 80.1948363,
  "tags": {
    "name": "கோயம்பேடு",
    "name:en": "Koyambedu",
    "name:ml": "കോയമ്പേട്",
    "name:ta": "கோயம்பேடு",
    "network": "Chennai Metro",
    "network:wikidata": "Q1639576",
    "note": "Contributors are requested to not edit the \"network\" and the \"operator\" tags. (2023/11/08)",
    "operator": "Chennai Metro Rail Limited",
    "public_transport": "station",
    "railway": "station",
    "railway:ref": "SKO",
    "ref": "SKO",
    "station": "subway",
    "subway": "yes",
    "wikidata": "Q6435138",
    "wikipedia": "en:Koyambedu metro station"
  }
},
{
  "type": "node",
  "id": 5329907482,
  "lat": 13.0755466,
  "lon": 80.2328522,
  "tags": {
    "name": "Pachaiyappa's College",
    "name:ml": "പച്ചയ്യപ്പൻ കോളേജ്",
    "name:ta": "பச்சையப்பன் கல்லூரி",
    "network": "Chennai Metro",
    "note": "Contributors are requested to not edit the \"network\" and the \"operator\" tags. (2023/11/08)",
    "operator": "Chennai Metro Rail Limited",
    "public_transport": "station",
    "railway": "station",
    "railway:ref": "SPC",
    "ref": "SPC",
    "station": "subway",
    "subway": "yes",
    "wikidata": "Q30638918",
    "wikipedia": "en:Pachaiyappa's College metro station"
  }
},
{
  "type": "node",
  "id": 5329907487,
  "lat": 13.0776371,
  "lon": 80.2426191,
  "tags": {
    "name": "Kilpauk",
    "name:ml": "കീഴ്പാക്കം",
    "name:ta": "கீழ்பாக்கம்",
    "network": "Chennai Metro",
    "network:wikidata": "Q1639576",
    "note": "Contributors are requested to not edit the \"network\" and the \"operator\" tags. (2023/11/08)",
    "operator": "Chennai Metro Rail Limited",
    "public_transport": "station",
    "railway": "station",
    "railway:ref": "SKM",
    "ref": "SKM",
    "station": "subway",
    "subway": "yes",
    "wikidata": "Q30638925",
    "wikipedia": "en:Kilpauk Medical College metro station"
  }
},
{
  "type": "node",
  "id": 5329907490,
  "lat": 13.0787841,
  "lon": 80.2504730,
  "tags": {
    "internet_access": "no",
    "name": "Nehru Park",
    "name:ml": "നെഹ്‌റു പാർക്ക്",
    "name:ta": "நேரு பூங்கா",
    "network": "Chennai Metro",
    "network:wikidata": "Q1639576",
    "note": "Contributors are requested to not edit the \"network\" and the \"operator\" tags. (2023/11/08)",
    "operator": "Chennai Metro Rail Limited",
    "public_transport": "station",
    "railway": "station",
    "railway:ref": "SNP",
    "ref": "SNP",
    "station": "subway",
    "subway": "yes",
    "wikidata": "Q30638924",
    "wikipedia": "en:Nehru Park metro station"
  }
},
{
  "type": "node",
  "id": 5329907499,
  "lat": 13.0802807,
  "lon": 80.2630546,
  "tags": {
    "name": "Egmore Metro",
    "name:ml": "എഴുമ്പൂർ",
    "name:ta": "எழும்பூர்",
    "network": "Chennai Metro",
    "network:wikidata": "Q1639576",
    "note": "Contributors are requested to not edit the \"network\" and the \"operator\" tags. (2023/11/08)",
    "operator": "Chennai Metro Rail Limited",
    "public_transport": "station",
    "railway": "station",
    "railway:ref": "SEG",
    "ref": "SEG",
    "station": "subway",
    "subway": "yes",
    "wikidata": "Q30638926",
    "wikipedia": "en:Egmore metro station"
  }
},
{
  "type": "node",
  "id": 5337407346,
  "lat": 13.0585155,
  "lon": 80.2587833,
  "tags": {
    "name": "ஆயிரம் விளக்கு",
    "name:en": "Thousand Lights",
    "name:ml": "ആയിരം വിളക്ക്",
    "name:ta": "ஆயிரம் விளக்கு",
    "network": "Chennai Metro",
    "network:wikidata": "Q1639576",
    "note": "Contributors are requested to not edit the \"network\" and the \"operator\" tags. (2023/11/08)",
    "operator": "Chennai Metro Rail Limited",
    "public_transport": "station",
    "railway": "station",
    "railway:ref": "STL",
    "ref": "STL",
    "station": "subway",
    "subway": "yes",
    "wikidata": "Q62005544",
    "wikipedia": "en:Thousand Lights metro station"
  }
},
{
  "type": "node",
  "id": 5337407350,
  "lat": 13.0643716,
  "lon": 80.2658465,
  "tags": {
    "name": "எல் ஐ சி",
    "name:en": "LIC",
    "name:ml": "എൽഐസി",
    "name:ta": "எல் ஐ சி",
    "network": "Chennai Metro",
    "network:wikidata": "Q1639576",
    "note": "Contributors are requested to not edit the \"network\" and the \"operator\" tags. (2023/11/08)",
    "operator": "Chennai Metro Rail Limited",
    "public_transport": "station",
    "railway": "station",
    "railway:ref": "SLI",
    "ref": "SLI",
    "station": "subway",
    "subway": "yes",
    "wikidata": "Q62005418",
    "wikipedia": "en:LIC metro station"
  }
},
{
  "type": "node",
  "id": 5337407354,
  "lat": 13.0696345,
  "lon": 80.2730362,
  "tags": {
    "name": "அரசினர் தோட்டம்",
    "name:en": "Government Estate",
    "name:ml": "സർക്കാർ എസ്റ്റേറ്റ്",
    "name:ta": "அரசினர் தோட்டம்",
    "network": "Chennai Metro",
    "network:wikidata": "Q1639576",
    "note": "Contributors are requested to not edit the \"network\" and the \"operator\" tags. (2023/11/08)",
    "operator": "Chennai Metro Rail Limited",
    "public_transport": "station",
    "railway": "station",
    "railway:ref": "SGE",
    "ref": "SGE",
    "station": "subway",
    "subway": "yes",
    "wikidata": "Q62005539",
    "wikipedia": "en:Government Estate metro station"
  }
},
{
  "type": "node",
  "id": 5337658083,
  "lat": 13.0872681,
  "lon": 80.2849845,
  "tags": {
    "name": "High Court",
    "name:en": "High Court",
    "name:ml": "ഹൈക്കോടതി",
    "name:ta": "உயர்நீதிமன்றம்",
    "network": "Chennai Metro",
    "note": "Contributors are requested to not edit the \"network\" and the \"operator\" tags. (2023/11/08)",
    "operator": "Chennai Metro Rail Limited",
    "public_transport": "station",
    "railway": "station",
    "railway:ref": "SHC",
    "ref": "SHC",
    "start_date": "2019-02-10",
    "station": "subway",
    "subway": "yes",
    "wikidata": "Q62005403",
    "wikipedia": "en:High Court metro station"
  }
},
{
  "type": "node",
  "id": 5337658088,
  "lat": 13.0954465,
  "lon": 80.2861312,
  "tags": {
    "name": "Mannadi",
    "name:en": "Mannadi",
    "name:ml": "മണ്ണടി",
    "name:ta": "மண்ணடி",
    "network": "Chennai Metro",
    "note": "Contributors are requested to not edit the \"network\" and the \"operator\" tags. (2023/11/08)",
    "operator": "Chennai Metro Rail Limited",
    "public_transport": "station",
    "railway": "station",
    "railway:ref": "SMA",
    "ref": "SMA",
    "station": "subway",
    "subway": "yes",
    "wikidata": "Q62005430",
    "wikipedia": "en:Mannadi metro station"
  }
},
{
  "type": "node",
  "id": 5337658099,
  "lat": 13.1078469,
  "lon": 80.2809490,
  "tags": {
    "name": "வண்ணாரப்பேட்டை",
    "name:en": "Washermanpet",
    "name:ml": "വണ്ണാരപ്പേട്ട",
    "name:ta": "வண்ணாரப்பேட்டை",
    "network": "Chennai Metro",
    "note": "Contributors are requested to not edit the \"network\" and the \"operator\" tags. (2023/11/08)",
    "operator": "Chennai Metro Rail Limited",
    "public_transport": "station",
    "railway": "station",
    "railway:ref": "SWA",
    "ref": "SWA",
    "station": "subway",
    "subway": "yes",
    "wikidata": "Q48732079",
    "wikipedia": "en:Washermanpet metro station"
  }
},
{
  "type": "node",
  "id": 6285857237,
  "lat": 12.9998798,
  "lon": 80.1940099,
  "tags": {
    "alt_name": "Officers Training Academy",
    "local_ref": "Officers Training Academy",
    "name": "நங்கநல்லூர் சாலை",
    "name:en": "Nanganallur Road",
    "name:ml": "നങ്കനല്ലൂർ റോഡ്",
    "name:ta": "நங்கநல்லூர் சாலை",
    "network": "Chennai Metro",
    "note": "Contributors are requested to not edit the \"network\" and the \"operator\" tags. (2023/11/08)",
    "operator": "Chennai Metro Rail Limited",
    "public_transport": "station",
    "railway": "station",
    "railway:ref": "SOT",
    "ref": "SOT",
    "station": "subway",
    "subway": "yes",
    "wikidata": "Q19894462",
    "wikipedia": "en:Nanganallur Road metro station"
  }
},
{
  "type": "node",
  "id": 6285857239,
  "lat": 12.9876728,
  "lon": 80.1764787,
  "tags": {
    "name": "மீனம்பாக்கம்",
    "name:ml": "മീനമ്പാക്കം",
    "name:ta": "மீனம்பாக்கம்",
    "network": "Chennai Metro",
    "note": "Contributors are requested to not edit the \"network\" and the \"operator\" tags. (2023/11/08)",
    "operator": "Chennai Metro Rail Limited",
    "public_transport": "station",
    "railway": "station",
    "railway:ref": "SME",
    "ref": "SME",
    "station": "subway",
    "subway": "yes",
    "wheelchair": "yes",
    "wikidata": "Q19893884",
    "wikipedia": "en:Meenambakkam metro station"
  }
},
{
  "type": "node",
  "id": 6285857241,
  "lat": 12.9808092,
  "lon": 80.1642026,
  "tags": {
    "name": "சென்னை விமான நிலையம்",
    "name:en": "Chennai International Airport",
    "name:ml": "ചെന്നൈ വിമാനത്താവളം",
    "name:ta": "சென்னை விமான நிலையம்",
    "network": "Chennai Metro",
    "note": "Contributors are requested to not edit the \"network\" and the \"operator\" tags. (2023/11/08)",
    "operator": "Chennai Metro Rail Limited",
    "public_transport": "station",
    "railway": "station",
    "railway:ref": "SAP",
    "ref": "SAP",
    "station": "subway",
    "subway": "yes",
    "wikidata": "Q5091440",
    "wikipedia": "en:Chennai International Airport metro station"
  }
},
{
  "type": "node",
  "id": 6285857242,
  "lat": 13.0368003,
  "lon": 80.2464194,
  "tags": {
    "name": "தேனாம்பேட்டை",
    "name:en": "Teynampet",
    "name:ml": "തേനാംപേട്ട",
    "name:ta": "தேனாம்பேட்டை",
    "network": "Chennai Metro",
    "network:wikidata": "Q1639576",
    "note": "Contributors are requested to not edit the \"network\" and the \"operator\" tags. (2023/11/08)",
    "operator": "Chennai Metro Rail Limited",
    "public_transport": "station",
    "railway": "station",
    "railway:ref": "STE",
    "ref": "STE",
    "station": "subway",
    "subway": "yes",
    "wikidata": "Q55634996",
    "wikipedia": "en:Teynampet metro station"
  }
},
{
  "type": "node",
  "id": 6285857243,
  "lat": 13.0317092,
  "lon": 80.2411957,
  "tags": {
    "alt_name": "Chamiers Road",
    "local_ref": "Chamiers Road",
    "name": "நந்தனம்",
    "name:en": "Nandanam",
    "name:ml": "നന്ദനം",
    "name:ta": "நந்தனம்",
    "network": "Chennai Metro",
    "network:wikidata": "Q1639576",
    "note": "Contributors are requested to not edit the \"network\" and the \"operator\" tags. (2023/11/08)",
    "operator": "Chennai Metro Rail Limited",
    "public_transport": "station",
    "railway": "station",
    "railway:ref": "SCR",
    "ref": "SCR",
    "station": "subway",
    "subway": "yes",
    "wikidata": "Q55624607",
    "wikipedia": "en:Nandanam metro station"
  }
},
{
  "type": "node",
  "id": 6285857244,
  "lat": 13.0239638,
  "lon": 80.2280815,
  "tags": {
    "name": "சைதாப்பேட்டை",
    "name:en": "Saidapet",
    "name:ml": "സൈദാപേട്ട",
    "name:ta": "சைதாப்பேட்டை",
    "network": "Chennai Metro",
    "network:wikidata": "Q1639576",
    "note": "Contributors are requested to not edit the \"network\" and the \"operator\" tags. (2023/11/08)",
    "operator": "Chennai Metro Rail Limited",
    "public_transport": "station",
    "railway": "station",
    "railway:ref": "SSA",
    "ref": "SSA",
    "station": "subway",
    "subway": "yes",
    "wikidata": "Q55632346",
    "wikipedia": "en:Saidapet metro station"
  }
},
{
  "type": "node",
  "id": 6285857246,
  "lat": 13.0146634,
  "lon": 80.2241669,
  "tags": {
    "name": "சின்னமலை",
    "name:en": "Little Mount",
    "name:ml": "ചിന്നമല",
    "name:ta": "சின்னமலை",
    "network": "Chennai Metro",
    "note": "Contributors are requested to not edit the \"network\" and the \"operator\" tags. (2023/11/08)",
    "operator": "Chennai Metro Rail Limited",
    "public_transport": "station",
    "railway": "station",
    "railway:ref": "SLM",
    "ref": "SLM",
    "station": "subway",
    "subway": "yes",
    "wheelchair": "yes",
    "wikidata": "Q30639073",
    "wikipedia": "en:Little Mount metro station"
  }
},
{
  "type": "node",
  "id": 6285857248,
  "lat": 13.0092746,
  "lon": 80.2130846,
  "tags": {
    "name": "கிண்டி",
    "name:en": "Guindy",
    "name:ml": "ഗിണ്ടി",
    "name:ta": "கிண்டி",
    "network": "Chennai Metro",
    "note": "Contributors are requested to not edit the \"network\" and the \"operator\" tags. (2023/11/08)",
    "operator": "Chennai Metro Rail Limited",
    "public_transport": "station",
    "railway": "station",
    "railway:ref": "SGU",
    "ref": "SGU",
    "station": "subway",
    "subway": "yes",
    "wikidata": "Q18357501",
    "wikipedia": "en:Guindy metro station"
  }
},
{
  "type": "node",
  "id": 6285857249,
  "lat": 13.0458852,
  "lon": 80.2482846,
  "tags": {
    "alt_name": "Gemini",
    "alt_name:ta": "ஜெமினி",
    "local_ref": "Gemini",
    "name": "ஏ ஜி டி.எம்.எஸ்",
    "name:en": "AG-DMS",
    "name:ml": "എജി - ഡിഎംഎസ്",
    "name:ta": "ஏ ஜி டி.எம்.எஸ்",
    "network": "Chennai Metro",
    "note": "Contributors are requested to not edit the \"network\" and the \"operator\" tags. (2023/11/08)",
    "operator": "Chennai Metro Rail Limited",
    "public_transport": "station",
    "railway": "station",
    "railway:ref": "SGM",
    "ref": "SGM",
    "station": "subway",
    "subway": "yes",
    "wikidata": "Q55602937",
    "wikipedia": "en:AG-DMS metro station"
  }
},
{
  "type": "node",
  "id": 6285857253,
  "lat": 13.0817254,
  "lon": 80.2739160,
  "tags": {
    "internet_access": "no",
    "name": "Chennai Central",
    "name:en": "Chennai Central",
    "name:ml": "ചെന്നൈ സെൻട്രൽ",
    "name:ta": "சென்னை மத்திய ரயில் நிலையம்",
    "network": "Chennai Metro",
    "note": "Contributors are requested to not edit the \"network\" and the \"operator\" tags. (2023/11/08)",
    "operator": "Chennai Metro Rail Limited",
    "public_transport": "station",
    "railway": "station",
    "railway:ref": "SCC",
    "ref": "SCC",
    "station": "subway",
    "subway": "yes",
    "wikidata": "Q5091428",
    "wikipedia": "en:Chennai Central metro station"
  }
},
{
  "type": "node",
  "id": 6460934200,
  "lat": 13.1089648,
  "lon": 80.2820095,
  "tags": {
    "internet_access": "no",
    "name": "Washermanpet",
    "name:ml": "വണ്ണാരപ്പേട്ട",
    "name:ta": "வண்ணாரப்பேட்டை",
    "network": "IR",
    "operator": "SR",
    "public_transport": "station",
    "railway": "station",
    "ref": "WST",
    "wikidata": "Q7971483",
    "wikipedia": "en:Washermanpet railway station"
  }
},
{
  "type": "node",
  "id": 8430632406,
  "lat": 13.1157545,
  "lon": 80.2847439,
  "tags": {
    "name": "தியாகராயா கல்லூரி",
    "name:en": "Sir Theagaraya College",
    "name:ml": "ത്യാഗരായ കോളേജ്",
    "name:ta": "தியாகராயா கல்லூரி",
    "network": "Chennai Metro",
    "note": "Contributors are requested to not edit the \"network\" and the \"operator\" tags. (2023/11/08)",
    "operator": "Chennai Metro Rail Limited",
    "public_transport": "station",
    "railway": "station",
    "railway:ref": "STC",
    "ref": "STC",
    "station": "subway",
    "subway": "yes",
    "wikidata": "Q105676245"
  }
},
{
  "type": "node",
  "id": 8430632416,
  "lat": 13.1245276,
  "lon": 80.2888557,
  "tags": {
    "name": "தொண்டையார்பேட்டை",
    "name:en": "Tondiarpet",
    "name:ml": "തണ്ടയാർപേട്ട",
    "name:ta": "தொண்டையார்பேட்டை",
    "network": "Chennai Metro",
    "note": "Contributors are requested to not edit the \"network\" and the \"operator\" tags. (2023/11/08)",
    "operator": "Chennai Metro Rail Limited",
    "public_transport": "station",
    "railway": "station",
    "railway:ref": "STR",
    "ref": "STR",
    "station": "subway",
    "subway": "yes"
  }
},
{
  "type": "node",
  "id": 8430636713,
  "lat": 13.1792903,
  "lon": 80.3073435,
  "tags": {
    "name": "விம்கோ நகர்",
    "name:en": "Wimco Nagar",
    "name:ml": "വിംകോ നഗർ",
    "name:ta": "விம்கோ நகர்",
    "network": "Chennai Metro",
    "note": "Contributors are requested to not edit the \"network\" and the \"operator\" tags. (2023/11/08)",
    "operator": "Chennai Metro Rail Limited",
    "public_transport": "station",
    "railway": "station",
    "railway:ref": "SWN",
    "ref": "SWN",
    "station": "subway",
    "subway": "yes",
    "wikidata": "Q104856728"
  }
},
{
  "type": "node",
  "id": 8430636714,
  "lat": 13.1718028,
  "lon": 80.3052689,
  "tags": {
    "name": "திருவொற்றியூர்",
    "name:en": "Thiruvottriyur",
    "name:ml": "തിരുവൊട്ടിയൂർ",
    "name:ta": "திருவொற்றியூர்",
    "network": "Chennai Metro",
    "note": "Contributors are requested to not edit the \"network\" and the \"operator\" tags. (2023/11/08)",
    "operator": "Chennai Metro Rail Limited",
    "public_transport": "station",
    "railway": "station",
    "railway:ref": "STV",
    "ref": "STV",
    "station": "subway",
    "subway": "yes"
  }
},
{
  "type": "node",
  "id": 8430636715,
  "lat": 13.1506672,
  "lon": 80.2993928,
  "tags": {
    "name": "காலடிபேட்டை",
    "name:en": "Kaladipet",
    "name:ml": "കാലടിപേട്ട",
    "name:ta": "காலடிபேட்டை",
    "network": "Chennai Metro",
    "note": "Contributors are requested to not edit the \"network\" and the \"operator\" tags. (2023/11/08)",
    "operator": "Chennai Metro Rail Limited",
    "public_transport": "station",
    "railway": "station",
    "railway:ref": "SKP",
    "ref": "SKP",
    "station": "subway",
    "subway": "yes"
  }
},
{
  "type": "node",
  "id": 8430636716,
  "lat": 13.1431344,
  "lon": 80.2963291,
  "tags": {
    "name": "சுங்கச்சாவடி",
    "name:en": "Tollgate",
    "name:ml": "ടോൾഗേറ്റ്",
    "name:ta": "சுங்கச்சாவடி",
    "network": "Chennai Metro",
    "note": "Contributors are requested to not edit the \"network\" and the \"operator\" tags. (2023/11/08)",
    "operator": "Chennai Metro Rail Limited",
    "public_transport": "station",
    "railway": "station",
    "railway:ref": "STG",
    "ref": "STG",
    "station": "subway",
    "subway": "yes",
    "wikidata": "Q105605215"
  }
},
{
  "type": "node",
  "id": 8430636817,
  "lat": 13.1345195,
  "lon": 80.2930011,
  "tags": {
    "name": "புது வண்ணாரப்பேட்டை",
    "name:en": "New Washermanpet",
    "name:ml": "പുതിയ വണ്ണാരപ്പേട്ട",
    "name:ta": "புது வண்ணாரப்பேட்டை",
    "network": "Chennai Metro",
    "note": "Contributors are requested to not edit the \"network\" and the \"operator\" tags. (2023/11/08)",
    "operator": "Chennai Metro Rail Limited",
    "public_transport": "station",
    "railway": "station",
    "railway:ref": "SNW",
    "ref": "SNW",
    "station": "subway",
    "subway": "yes",
    "wikidata": "Q105584479"
  }
},
{
  "type": "node",
  "id": 9580013601,
  "lat": 13.1602152,
  "lon": 80.3024483,
  "tags": {
    "name": "திருவொற்றியூர் தேரடி",
    "name:en": "Thiruvottiyur Theradi",
    "name:ml": "തിരുവൊറ്റിയൂർ തേരടി",
    "name:ta": "திருவொற்றியூர் தேரடி",
    "network": "Chennai Metro",
    "note": "Contributors are requested to not edit the \"network\" and the \"operator\" tags. (2023/11/08)",
    "operator": "Chennai Metro Rail Limited",
    "public_transport": "station",
    "railway": "station",
    "railway:ref": "STT",
    "ref": "STT",
    "station": "subway",
    "subway": "yes"
  }
},
{
  "type": "node",
  "id": 9857416360,
  "lat": 13.1839706,
  "lon": 80.3089939,
  "tags": {
    "name": "விம்கோ நகர் டிப்போ",
    "name:en": "Wimco Nagar Depot",
    "name:ml": "വിംകോ നഗർ ഡിപ്പോ",
    "name:ta": "விம்கோ நகர் டிப்போ",
    "network": "Chennai Metro",
    "note": "Contributors are requested to not edit the \"network\" and the \"operator\" tags. (2023/11/08)",
    "operator": "Chennai Metro Rail Limited",
    "public_transport": "station",
    "railway": "station",
    "station": "subway",
    "subway": "yes",
    "wikidata": "Q110588986"
  }
},
{
  "type": "node",
  "id": 11703420865,
  "lat": 13.0579367,
  "lon": 80.2581872,
  "tags": {
    "addr:city": "Chennai",
    "addr:district": "Chennai",
    "addr:housenumber": "189",
    "addr:postcode": "600002",
    "addr:street": "Mount Rd, Anna Salai, Express Estate, Triplicane",
    "name": "Thousand Lights Metro Rail Station - தௌசன்ட் லைட்ஸ் மெட்ரோ ரயில் ஸ்டேஷன்",
    "public_transport": "station",
    "railway": "station",
    "station": "subway",
    "subway": "yes"
  }
}

  ]
}
